[{"OBJECT_NAME":"STARLINK-35839","OBJECT_ID":"2025-303G","EPOCH":"2026-03-09T01:21:46.920384","MEAN_MOTION":15.27606005,"ECCENTRICITY":0.00034148,"INCLINATION":43.0022,"RA_OF_ASC_NODE":314.7014,"ARG_OF_PERICENTER":257.7968,"MEAN_ANOMALY":102.2502,"EPHEMERIS_TYPE":0,"CLASSIFICATION_TYPE":"U","NORAD_CAT_ID":67169,"ELEMENT_SET_NO":999,"REV_AT_EPOCH":1263,"BSTAR":0.0010184918,"MEAN_MOTION_DOT":0.00027896,"MEAN_MOTION_DDOT":0},{"OBJECT_NAME":"COSMOS 2251 DEB","OBJECT_ID":"1993-036BPR","EPOCH":"2026-02-24T07:57:21.236256","MEAN_MOTION":15.23776337,"ECCENTRICITY":0.00166824,"INCLINATION":73.9787,"RA_OF_ASC_NODE":76.2838,"ARG_OF_PERICENTER":284.1156,"MEAN_ANOMALY":75.8189,"EPHEMERIS_TYPE":0,"CLASSIFICATION_TYPE":"U","NORAD_CAT_ID":37966,"ELEMENT_SET_NO":999,"REV_AT_EPOCH":86459,"BSTAR":0.0031189174,"MEAN_MOTION_DOT":0.00076101,"MEAN_MOTION_DDOT":0}]
